format  = 'OEF1.1'       ! file format
rectype = 'ML'           ! record type (1L/ML)
refsys  = ECLM J2000     ! default reference system
END_OF_HEADER
1989UP
! Equinoctial elements: a, e*sin(LP), e*cos(LP), tan(i/2)*sin(LN), tan(i/2)*cos(LN), mean long.
 EQU   1.86382231504752E+00  0.446721342704536  0.156365069596687  0.027100532704266  0.020114888351782  92.1541466516413
 MJD     49770.16086815 TDT
 MAG  20.630  0.150
! RMS   3.82419120E-08  1.03480029E-07  2.64702403E-07  8.00659270E-08  8.34419127E-08  3.35887095E-05
 COV   1.462443833043641E-15  4.048305250313508E-16  4.332226000826965E-16
 COV   8.889295453171681E-17  1.641120675433848E-16 -9.173269051878956E-13
 COV   1.070811639512904E-14 -2.204412476756549E-14  1.033012258694888E-15
 COV   1.146533210322060E-16  1.832731796011324E-12  7.006736190633353E-14
 COV  -6.630973575958871E-15  9.234389872092129E-16 -6.456914310844832E-12
 COV   6.410552658548473E-15  5.261914566903080E-15  4.985203139071597E-13
 COV   6.962552792872522E-15 -1.714640606281442E-13  1.128201405720058E-09
 NOR   2.973799844049870E+17 -1.844180205360070E+16  3.646306141556922E+16
 NOR  -3.197490275572736E+15  2.751336134415992E+15  4.822704236964022E+14
 NOR   1.538944168437002E+15 -2.086274967197282E+15  5.269393925708566E+14
 NOR  -4.444668983939636E+14 -2.973532183728154E+13  4.586179004700611E+15
 NOR  -1.787599181536358E+14  1.642635650003479E+14  5.938831046110057E+13
 NOR   9.093171938104628E+14 -7.197025026172628E+14 -4.990098478716304E+12
 NOR   7.147503531845959E+14  4.325858248846824E+12  7.840719989695250E+11
